format  = 'OEF1.1'       ! file format
rectype = '1L'           ! record type (1L/ML)
elem    = 'KEP'          ! type of orbital elements
refsys  = ECLM J2000     ! default reference system
END_OF_HEADER
! Name, Epoch(MJD), a, e, i, long. node, arg. peric., mean anomaly
'1'            57400.000000   2.7681116175738203E+00   7.5754381977868990E-02   1.0591658251392079E+01   8.0321792935688265E+01   7.2733296030277558E+01   1.8138128433921716E+02  3.41  0.12
'2'            57400.000000   2.7723621225254980E+00   2.3102360144084191E-01   3.4840949394882450E+01   1.7308827979786011E+02   3.0998944656158335E+02   1.6360442273654294E+02  4.09  0.11
'3'            57400.000000   2.6697632637984237E+00   2.5626561795706498E-01   1.2989873385809409E+01   1.6986256288110721E+02   2.4829397382898597E+02   1.2346678272050802E+02  5.33  0.32
'4'            57400.000000   2.3616694675395546E+00   8.8922357645912331E-02   7.1400483482701853E+00   1.0384610707213291E+02   1.5113750673065374E+02   1.2952977654243671E+02  3.33  0.32
'5'            57400.000000   2.5741810767712661E+00   1.9140215080679465E-01   5.3684688663275066E+00   1.4159590129779789E+02   3.5894651641918091E+02   3.5566521307970908E+02  6.91  0.15
'6'            57400.000000   2.4270714522172292E+00   2.0166519726943902E-01   1.4744150571547125E+01   1.3869968332963208E+02   2.3964122731315706E+02   1.3326484242619301E+02  5.67  0.24
'7'            57400.000000   2.3852628856624825E+00   2.3133843380527161E-01   5.5233513288628524E+00   2.5957162220529824E+02   1.4538335732254018E+02   1.7924209211326487E+02  5.53  0.15
'8'            57400.000000   2.2010448957689848E+00   1.5695397287110094E-01   5.8868448303179548E+00   1.1090552590771085E+02   2.8539951282843919E+02   1.9258399668546323E+02  6.58  0.28
'9'            57400.000000   2.3863626352757112E+00   1.2209628148755954E-01   5.5741626204166845E+00   6.8935262702292661E+01   5.9046565672164224E+00   3.1657733027264163E+02  6.28  0.17
'10'           57400.000000   3.1439152694352446E+00   1.1405578560317027E-01   3.8321860436842590E+00   2.8333571149247450E+02   3.1182186629246837E+02   3.0012110429210145E+02  5.46  0.15
'11'           57400.000000   2.4525398304690857E+00   1.0023551500046589E-01   4.6298491443431544E+00   1.2556668652815678E+02   1.9600474800889708E+02   3.3051953887204888E+02  6.43  0.15
'12'           57400.000000   2.3334443068143114E+00   2.2107555096131234E-01   8.3685864465567867E+00   2.3548150175073133E+02   6.9510363504735594E+01   1.6180883150930927E+02  7.29  0.22
'13'           57400.000000   2.5769047269626864E+00   8.3725856714043825E-02   1.6538582144039818E+01   4.3238935116809820E+01   8.0294293523262112E+01   2.6186326557708253E+02  6.76  0.15
'14'           57400.000000   2.5859742786057458E+00   1.6637431866905017E-01   9.1186024197219222E+00   8.6148825129119885E+01   9.8064386380648273E+01   2.4027803404051053E+02  6.38  0.15
'15'           57400.000000   2.6435343565539915E+00   1.8725192721053080E-01   1.1738082218918453E+01   2.9318214216460490E+02   9.7542004219779912E+01   9.2415827300165265E+00  5.33  0.23
'16'           57400.000000   2.9218050558763626E+00   1.3604619469573645E-01   3.0990310539447030E+00   1.5027689692554466E+02   2.2710288807116675E+02   5.3596767412066022E+01  6.03  0.20
'17'           57400.000000   2.4706208050694198E+00   1.3234976192652409E-01   5.5907131081900525E+00   1.2556587572504733E+02   1.3605065922223164E+02   3.5899766929334618E+02  7.72  0.15
'18'           57400.000000   2.2952380693207197E+00   2.1893700887214163E-01   1.0133791075495058E+01   1.5046977569852180E+02   2.2788237899890419E+02   2.8723663056861574E+02  6.49  0.25
'19'           57400.000000   2.4415950477918194E+00   1.5882542101628455E-01   1.5736950390013973E+00   2.1115319752775815E+02   1.8220337793501312E+02   2.4722673642278173E+02  7.24  0.10
'20'           57400.000000   2.4085918945157152E+00   1.4271010115390348E-01   7.0840741358417036E-01   2.0612841939366069E+02   2.5659253764942878E+02   1.6154261242512496E+02  6.56  0.25
